{
    "links": {
        "self": "http://www.neowsapp.com/rest/v1/neo/3836157?api_key=iIulBulltgU6a56xZRHN4H3l9WmuAYTsLGpBGhQ2"
    },
    "id": "3836157",
    "neo_reference_id": "3836157",
    "name": "(2018 VK6)",
    "designation": "2018 VK6",
    "nasa_jpl_url": "http://ssd.jpl.nasa.gov/sbdb.cgi?sstr=3836157",
    "absolute_magnitude_h": 21.0,
    "estimated_diameter": {
        "kilometers": {
            "estimated_diameter_min": 0.1677084622,
            "estimated_diameter_max": 0.3750075218
        },
        "meters": {
            "estimated_diameter_min": 167.7084621628,
            "estimated_diameter_max": 375.0075217981
        },
        "miles": {
            "estimated_diameter_min": 0.1042091748,
            "estimated_diameter_max": 0.2330187988
        },
        "feet": {
            "estimated_diameter_min": 550.2246310023,
            "estimated_diameter_max": 1230.3396778159
        }
    },
    "is_potentially_hazardous_asteroid": false,
    "close_approach_data": [
        {
            "close_approach_date": "2015-10-15",
            "close_approach_date_full": "2015-Oct-15 01:45",
            "epoch_date_close_approach": 1444873500000,
            "relative_velocity": {
                "kilometers_per_second": "18.7291085607",
                "kilometers_per_hour": "67424.7908185628",
                "miles_per_hour": "41895.1429394564"
            },
            "miss_distance": {
                "astronomical": "0.1783039564",
                "lunar": "69.3602390396",
                "kilometers": "26673892.090012868",
                "miles": "16574387.9801508584"
            },
            "orbiting_body": "Earth"
        },
        {
            "close_approach_date": "2018-09-16",
            "close_approach_date_full": "2018-Sep-16 07:58",
            "epoch_date_close_approach": 1537084680000,
            "relative_velocity": {
                "kilometers_per_second": "14.1515215456",
                "kilometers_per_hour": "50945.4775642846",
                "miles_per_hour": "31655.53854543"
            },
            "miss_distance": {
                "astronomical": "0.1491686353",
                "lunar": "58.0265991317",
                "kilometers": "22315310.111686811",
                "miles": "13866090.7242315518"
            },
            "orbiting_body": "Venus"
        },
        {
            "close_approach_date": "2018-10-24",
            "close_approach_date_full": "2018-Oct-24 04:16",
            "epoch_date_close_approach": 1540354560000,
            "relative_velocity": {
                "kilometers_per_second": "23.0817688429",
                "kilometers_per_hour": "83094.3678343108",
                "miles_per_hour": "51631.6087246027"
            },
            "miss_distance": {
                "astronomical": "0.2701882521",
                "lunar": "105.1032300669",
                "kilometers": "40419587.013183027",
                "miles": "25115566.7456866926"
            },
            "orbiting_body": "Earth"
        },
        {
            "close_approach_date": "2021-11-02",
            "close_approach_date_full": "2021-Nov-02 04:26",
            "epoch_date_close_approach": 1635827160000,
            "relative_velocity": {
                "kilometers_per_second": "28.1588065245",
                "kilometers_per_hour": "101371.7034881924",
                "miles_per_hour": "62988.4343146494"
            },
            "miss_distance": {
                "astronomical": "0.4161342099",
                "lunar": "161.8762076511",
                "kilometers": "62252791.435172913",
                "miles": "38682090.8854276794"
            },
            "orbiting_body": "Earth"
        },
        {
            "close_approach_date": "2112-07-26",
            "close_approach_date_full": "2112-Jul-26 14:10",
            "epoch_date_close_approach": 4498985400000,
            "relative_velocity": {
                "kilometers_per_second": "15.3303057211",
                "kilometers_per_hour": "55189.1005961152",
                "miles_per_hour": "34292.360867625"
            },
            "miss_distance": {
                "astronomical": "0.251534113",
                "lunar": "97.846769957",
                "kilometers": "37628967.53713931",
                "miles": "23381556.210410078"
            },
            "orbiting_body": "Earth"
        }
    ],
    "orbital_data": {
        "orbit_id": "6",
        "orbit_determination_date": "2019-01-01 07:06:20",
        "first_observation_date": "2018-11-08",
        "last_observation_date": "2018-12-06",
        "data_arc_in_days": 28,
        "observations_used": 36,
        "orbit_uncertainty": "7",
        "minimum_orbit_intersection": ".138351",
        "jupiter_tisserand_invariant": "3.447",
        "epoch_osculation": "2459000.5",
        "eccentricity": ".6403914097606835",
        "semi_major_axis": "2.092538601006003",
        "inclination": "9.648795833103279",
        "ascending_node_longitude": "297.3239913871799",
        "orbital_period": "1105.627020991074",
        "perihelion_distance": ".7524948563291203",
        "perihelion_argument": "12.66581403753813",
        "aphelion_distance": "3.432582345682886",
        "perihelion_time": "2459478.310710716816",
        "mean_anomaly": "204.4214435860441",
        "mean_motion": ".3256070927764584",
        "equinox": "J2000",
        "orbit_class": {
            "orbit_class_type": "APO",
            "orbit_class_description": "Near-Earth asteroid orbits which cross the Earth’s orbit similar to that of 1862 Apollo",
            "orbit_class_range": "a (semi-major axis) > 1.0 AU; q (perihelion) < 1.017 AU"
        }
    },
    "is_sentry_object": false
}